ORBCOMM FM20 [+]        
1 25416U 98046D   24031.06087124  .00001226  00000+0  47712-3 0  9997
2 25416  44.9961  39.3274 0002364 273.7151  86.3426 14.34831661331948
ORBCOMM FM16 [-]        
1 25417U 98046E   24031.50038317  .00001887  00000+0  69609-3 0  9999
2 25417  44.9959  33.7187 0005940 288.3986  71.6215 14.35674248331937
ORBCOMM FM15 [-]        
1 25418U 98046F   24031.02097859  .00001565  00000+0  58850-3 0  9992
2 25418  44.9991  39.8141 0005503 286.7472  73.2771 14.35414881331871
ORBCOMM FM14 [-]        
1 25419U 98046G   24031.06030890  .00001957  00000+0  72181-3 0  9997
2 25419  44.9974  38.8654 0004437 279.4399 102.1695 14.35549045331837
ORBCOMM FM13 [+]        
1 25420U 98046H   24031.05471923  .00001505  00000+0  57354-3 0  9998
2 25420  44.9994  43.2357 0006627 274.7458  85.2632 14.34919676330907
ORBCOMM FM21 [-]        
1 25475U 98053A   24031.35070459  .00001404  00000+0  53853-3 0  9996
2 25475  45.0088 126.0369 0002379 229.5115 130.5525 14.34904291324965
ORBCOMM FM22 [-]        
1 25476U 98053B   24031.36209193  .00001825  00000+0  67933-3 0  9998
2 25476  45.0077 123.6450 0004151 225.9894 134.0611 14.35344560324954
ORBCOMM FM23 [-]        
1 25477U 98053C   24031.38103695  .00001578  00000+0  59913-3 0  9995
2 25477  45.0086 128.3433 0003220 222.8353 137.2244 14.34916028325119
